HIMAWARI-8              
1 40267U 14060A   24023.85486800 -.00000275  00000+0  00000+0 0  9993
2 40267   0.0128 232.3045 0001091  71.0222 267.7304  1.00271858 33980
